{
  "type": "FeatureCollection",
  "features": [
    {
      "type": "Feature",
      "properties": {
        "patch_id": "plantation_1",
        "forest_type": "plantation",
        "area_ha": 4.516629826390164,
        "selection": "Largest connected forest polygons; point-in-polygon buffer clipped to forest",
        "review_status": "provisional geographic examples; not a probability sample or damage validation"
      },
      "geometry": {
        "type": "Polygon",
        "coordinates": [
          [
            [
              176.78066231243588,
              -39.187905244240206
            ],
            [
              176.78064796780356,
              -39.1880106319172
            ],
            [
              176.78062041848315,
              -39.18811441793456
            ],
            [
              176.78057992973297,
              -39.1882156027697
            ],
            [
              176.78052689143018,
              -39.18831321194662
            ],
            [
              176.7804618143181,
              -39.188406305421026
            ],
            [
              176.78038532508901,
              -39.18849398663399
            ],
            [
              176.78029816035033,
              -39.18857541114708
            ],
            [
              176.7802011595316,
              -39.18864979477546
            ],
            [
              176.78009525680085,
              -39.188716421140896
            ],
            [
              176.7799814720681,
              -39.18877464857183
            ],
            [
              176.77986090116295,
              -39.188823916283816
            ],
            [
              176.7797347052801,
              -39.188863749781135
            ],
            [
              176.77960409979542,
              -39.18889376542719
            ],
            [
              176.77947034255948,
              -39.18891367413983
            ],
            [
              176.77933472178213,
              -39.18892328417598
            ],
            [
              176.77919854362398,
              -39.18892250297871
            ],
            [
              176.7790631196153,
              -39.18891133806874
            ],
            [
              176.77892975402293,
              -39.188889896972256
            ],
            [
              176.77879973128702,
              -39.188858386185224
            ],
            [
              176.77867430364932,
              -39.1888171091845
            ],
            [
              176.77855467909106,
              -39.188766463504706
            ],
            [
              176.77844200969798,
              -39.188706936909306
            ],
            [
              176.77833738056358,
              -39.1886391026924
            ],
            [
              176.77824179933825,
              -39.18856361415683
            ],
            [
              176.77815618652423,
              -39.18848119832166
            ],
            [
              176.77808136661088,
              -39.18839264891971
            ],
            [
              176.77801806013446,
              -39.188298818752564
            ],
            [
              176.77796687673998,
              -39.188200611476766
            ],
            [
              176.777928309311,
              -39.18809897290029
            ],
            [
              176.7779027292245,
              -39.18799488187326
            ],
            [
              176.7778903827762,
              -39.18788934086042
            ],
            [
              176.77789138881081,
              -39.187783366286496
            ],
            [
              176.7779057375794,
              -39.187677978747196
            ],
            [
              176.77793329083602,
              -39.187574193180104
            ],
            [
              176.777973783171,
              -39.187473009090496
            ],
            [
              176.77802682456945,
              -39.187375400925724
            ],
            [
              176.77809190416912,
              -39.18728230869121
            ],
            [
              176.77816839518204,
              -39.18719462889821
            ],
            [
              176.7782555609323,
              -39.187113205930615
            ],
            [
              176.77835256195152,
              -39.18703882391384
            ],
            [
              176.77845846406396,
              -39.186972199164174
            ],
            [
              176.77857224738327,
              -39.186913973291134
            ],
            [
              176.77869281613425,
              -39.18686470701925
            ],
            [
              176.77881900920494,
              -39.18682487478891
            ],
            [
              176.7789496113276,
              -39.18679486018805
            ],
            [
              176.77908336478077,
              -39.186774952258624
            ],
            [
              176.77921898150004,
              -39.186765342713585
            ],
            [
              176.77935515548074,
              -39.186766124091065
            ],
            [
              176.77949057535315,
              -39.18677728886334
            ],
            [
              176.77962393700935,
              -39.18679872950956
            ],
            [
              176.77975395616042,
              -39.18683023955106
            ],
            [
              176.77987938070248,
              -39.18687151553963
            ],
            [
              176.7799990027732,
              -39.18692215997953
            ],
            [
              176.7801116703824,
              -39.186981685154954
            ],
            [
              176.7802162985052,
              -39.18704951782638
            ],
            [
              176.78031187953007,
              -39.18712500475036
            ],
            [
              176.78039749296244,
              -39.18720741896974
            ],
            [
              176.7804723142892,
              -39.1872959668138
            ],
            [
              176.78053562291979,
              -39.187389795540845
            ],
            [
              176.7805868091264,
              -39.18748800154967
            ],
            [
              176.78062537991744,
              -39.18758963908096
            ],
            [
              176.78065096378668,
              -39.18769372932478
            ],
            [
              176.780663314293,
              -39.18779926984649
            ],
            [
              176.78066231243588,
              -39.187905244240206
            ]
          ]
        ]
      }
    },
    {
      "type": "Feature",
      "properties": {
        "patch_id": "plantation_2",
        "forest_type": "plantation",
        "area_ha": 4.516629826390164,
        "selection": "Largest connected forest polygons; point-in-polygon buffer clipped to forest",
        "review_status": "provisional geographic examples; not a probability sample or damage validation"
      },
      "geometry": {
        "type": "Polygon",
        "coordinates": [
          [
            [
              176.7966045704868,
              -39.18869628380358
            ],
            [
              176.7965902498211,
              -39.188801672274316
            ],
            [
              176.79656272410136,
              -39.18890546092213
            ],
            [
              176.79652225835875,
              -39.189006650199154
            ],
            [
              176.79646924224878,
              -39.18910426558661
            ],
            [
              176.79640418630095,
              -39.1891973669804
            ],
            [
              176.79632771700378,
              -39.18928505774538
            ],
            [
              176.79624057077262,
              -39.189366493351066
            ],
            [
              176.79614358685876,
              -39.18944088950585
            ],
            [
              176.79603769926737,
              -39.18950752971087
            ],
            [
              176.7959239277627,
              -39.18956577216123
            ],
            [
              176.79580336804685,
              -39.18961505592789
            ],
            [
              176.7956771812068,
              -39.18965490636046
            ],
            [
              176.79554658253122,
              -39.18968493965923
            ],
            [
              176.7954128298052,
              -39.18970486657205
            ],
            [
              176.79527721119504,
              -39.18971449518055
            ],
            [
              176.79514103284052,
              -39.189713732748906
            ],
            [
              176.7950056062738,
              -39.18970258661709
            ],
            [
              176.79487223578636,
              -39.189681164130434
            ],
            [
              176.7947422058655,
              -39.18964967160568
            ],
            [
              176.7946167688222,
              -39.18960841234374
            ],
            [
              176.7944971327283,
              -39.18955778370843
            ],
            [
              176.79438444978067,
              -39.18949827329905
            ],
            [
              176.79427980520336,
              -39.18943045425379
            ],
            [
              176.7941842067955,
              -39.18935497972941
            ],
            [
              176.7940985752249,
              -39.18927257661002
            ],
            [
              176.7940237351616,
              -39.18918403850597
            ],
            [
              176.7939604073359,
              -39.189090218110096
            ],
            [
              176.79390920159847,
              -39.18899201898479
            ],
            [
              176.79387061104802,
              -39.18889038685958
            ],
            [
              176.7938450072843,
              -39.18878630052248
            ],
            [
              176.79383263683104,
              -39.18868076239308
            ],
            [
              176.7938336187641,
              -39.18857478886839
            ],
            [
              176.79384794356673,
              -39.18846940053395
            ],
            [
              176.7938754732237,
              -39.1883656123351
            ],
            [
              176.79391594255262,
              -39.18826442380244
            ],
            [
              176.79396896176019,
              -39.18816680942616
            ],
            [
              176.79403402019778,
              -39.1880737092715
            ],
            [
              176.79411049128123,
              -39.18798601992598
            ],
            [
              176.79419763852655,
              -39.1879045858655
            ],
            [
              176.79429462264346,
              -39.18783019132236
            ],
            [
              176.79440050961898,
              -39.187763552733436
            ],
            [
              176.79451427971256,
              -39.18770531184153
            ],
            [
              176.79463483727633,
              -39.1876560295158
            ],
            [
              176.794761021306,
              -39.18761618035124
            ],
            [
              176.79489161662084,
              -39.18758614809885
            ],
            [
              176.795025365565,
              -39.187566221970556
            ],
            [
              176.79516098011752,
              -39.18755659385458
            ],
            [
              176.79529715429445,
              -39.187557356467856
            ],
            [
              176.79543257672427,
              -39.187568502463364
            ],
            [
              176.79556594327448,
              -39.18758992450106
            ],
            [
              176.79569596960897,
              -39.18762141628145
            ],
            [
              176.79582140355473,
              -39.18766267453222
            ],
            [
              176.79594103715885,
              -39.187713301928405
            ],
            [
              176.79605371832022,
              -39.18777281091833
            ],
            [
              176.79615836188339,
              -39.18784062841835
            ],
            [
              176.79625396008817,
              -39.1879161013311
            ],
            [
              176.79633959227462,
              -39.1879985028344
            ],
            [
              176.79641443374902,
              -39.18808703937999
            ],
            [
              176.7964777637268,
              -39.188180858334945
            ],
            [
              176.79652897227464,
              -39.18827905619224
            ],
            [
              176.7965675661858,
              -39.188380687271064
            ],
            [
              176.79659317373137,
              -39.18848477282363
            ],
            [
              176.7966055482423,
              -39.188590310460484
            ],
            [
              176.7966045704868,
              -39.18869628380358
            ]
          ]
        ]
      }
    },
    {
      "type": "Feature",
      "properties": {
        "patch_id": "native_1",
        "forest_type": "native",
        "area_ha": 4.080088521376765,
        "selection": "Largest connected forest polygons; point-in-polygon buffer clipped to forest",
        "review_status": "provisional geographic examples; not a probability sample or damage validation"
      },
      "geometry": {
        "type": "Polygon",
        "coordinates": [
          [
            [
              176.77031629714577,
              -39.1780687118771
            ],
            [
              176.7703019377395,
              -39.178174099074354
            ],
            [
              176.77027437564894,
              -39.17827788333279
            ],
            [
              176.77023387625545,
              -39.1783790651468
            ],
            [
              176.7701808295387,
              -39.17847667006946
            ],
            [
              176.7701157463231,
              -39.17856975809742
            ],
            [
              176.77003925335976,
              -39.17865743272423
            ],
            [
              176.76995208729207,
              -39.17873884957486
            ],
            [
              176.76985508756238,
              -39.17881322453831
            ],
            [
              176.76974918832826,
              -39.17887984131977
            ],
            [
              176.76963540946613,
              -39.17893805834001
            ],
            [
              176.76951484674902,
              -39.17898731491485
            ],
            [
              176.7693886612928,
              -39.17902713665586
            ],
            [
              176.7692580683729,
              -39.179057140039625
            ],
            [
              176.7691243257189,
              -39.17907703610215
            ],
            [
              176.76898872140015,
              -39.179086633222205
            ],
            [
              176.76885256141878,
              -39.17908583896724
            ],
            [
              176.76877660560297,
              -39.17907956863301
            ],
            [
              176.76881477000006,
              -39.178890463999934
            ],
            [
              176.7687292390001,
              -39.17866455699993
            ],
            [
              176.7685842940001,
              -39.17854855999997
            ],
            [
              176.76838401400005,
              -39.17846611699996
            ],
            [
              176.76815385800012,
              -39.17843545799997
            ],
            [
              176.7678191430001,
              -39.178433591999976
            ],
            [
              176.76761476576976,
              -39.17834693053918
            ],
            [
              176.76758262580336,
              -39.1782621801645
            ],
            [
              176.767557065577,
              -39.17815808580253
            ],
            [
              176.76754473746377,
              -39.178052542710674
            ],
            [
              176.76754576013175,
              -39.17794656733367
            ],
            [
              176.76756012367204,
              -39.177841180274896
            ],
            [
              176.76758768969626,
              -39.17773739646734
            ],
            [
              176.76762819267196,
              -39.1776362153993
            ],
            [
              176.7676812424817,
              -39.17753861148909
            ],
            [
              176.76774632818237,
              -39.17744552470106
            ],
            [
              176.7678228229272,
              -39.17735785149406
            ],
            [
              176.76790999000443,
              -39.17727643618854
            ],
            [
              176.7680069899329,
              -39.17720206283616
            ],
            [
              176.76811288854736,
              -39.17713544766975
            ],
            [
              176.76822666599526,
              -39.177077232206535
            ],
            [
              176.7683472265579,
              -39.17702797707082
            ],
            [
              176.7684734092022,
              -39.17698815659577
            ],
            [
              176.76860399876077,
              -39.17695815425611
            ],
            [
              176.76873773763322,
              -39.176938258975746
            ],
            [
              176.7688733378955,
              -39.176928662345816
            ],
            [
              176.76900949370142,
              -39.17692945678006
            ],
            [
              176.76914489385624,
              -39.17694063462507
            ],
            [
              176.76927823444194,
              -39.176962088234085
            ],
            [
              176.76940823137244,
              -39.17699361100361
            ],
            [
              176.76953363275786,
              -39.17703489936288
            ],
            [
              176.7696532309588,
              -39.177085555697
            ],
            [
              176.76976587421498,
              -39.177145092175635
            ],
            [
              176.76987047773594,
              -39.177212935450406
            ],
            [
              176.76996603414716,
              -39.177288432175715
            ],
            [
              176.77005162319097,
              -39.17737085530004
            ],
            [
              176.7701264205892,
              -39.17745941106688
            ],
            [
              176.77018970598164,
              -39.17755324665821
            ],
            [
              176.77024086986438,
              -39.177651458406736
            ],
            [
              176.77027941946076,
              -39.177753100497824
            ],
            [
              176.7703049834687,
              -39.177857194077646
            ],
            [
              176.77031731563832,
              -39.177962736679355
            ],
            [
              176.77031629714577,
              -39.1780687118771
            ]
          ]
        ]
      }
    },
    {
      "type": "Feature",
      "properties": {
        "patch_id": "native_2",
        "forest_type": "native",
        "area_ha": 2.802268794142936,
        "selection": "Largest connected forest polygons; point-in-polygon buffer clipped to forest",
        "review_status": "provisional geographic examples; not a probability sample or damage validation"
      },
      "geometry": {
        "type": "Polygon",
        "coordinates": [
          [
            [
              176.76846296180508,
              -39.16138333975438
            ],
            [
              176.76834920887794,
              -39.16144155432605
            ],
            [
              176.76822867411792,
              -39.16149080826602
            ],
            [
              176.76810251837156,
              -39.161530627211235
            ],
            [
              176.76797195662814,
              -39.16156062766524
            ],
            [
              176.76783824631704,
              -39.16158052069223
            ],
            [
              176.76770267519598,
              -39.161590114700275
            ],
            [
              176.76756654894737,
              -39.16158931728672
            ],
            [
              176.7674311786015,
              -39.161578136128576
            ],
            [
              176.76739462172912,
              -39.161572252079736
            ],
            [
              176.7672470010001,
              -39.16133985499992
            ],
            [
              176.76689376900003,
              -39.161083541999965
            ],
            [
              176.76672545000008,
              -39.16091539999996
            ],
            [
              176.7666079960001,
              -39.16071592299994
            ],
            [
              176.76657345500007,
              -39.16050610399998
            ],
            [
              176.7666664730001,
              -39.160265416999955
            ],
            [
              176.76710903100002,
              -39.15977423199996
            ],
            [
              176.76716987700001,
              -39.159706699999965
            ],
            [
              176.76724582840922,
              -39.159478233034974
            ],
            [
              176.76731812919564,
              -39.15946161990281
            ],
            [
              176.76745183572845,
              -39.15944172765748
            ],
            [
              176.76757690205156,
              -39.15943287723909
            ],
            [
              176.76757567900006,
              -39.15947033199996
            ],
            [
              176.76788153600012,
              -39.159748803999946
            ],
            [
              176.76817301500014,
              -39.160087698999966
            ],
            [
              176.7687534370001,
              -39.16037968299997
            ],
            [
              176.76868128000012,
              -39.16054117199996
            ],
            [
              176.76839509700005,
              -39.16082814799995
            ],
            [
              176.76834765700005,
              -39.16097000499995
            ],
            [
              176.7684307390001,
              -39.16113651299997
            ],
            [
              176.76853217157515,
              -39.161339794538314
            ],
            [
              176.76846296180508,
              -39.16138333975438
            ]
          ]
        ]
      }
    }
  ]
}