{
  "type": "FeatureCollection",
  "features": [
    {
      "type": "Feature",
      "properties": {
        "status": "SAR_OPTICAL_INVENTORY_VERIFIED",
        "score": 0.5206349477853793,
        "area_km2": 13.464067305456734,
        "forest_fractions": {
          "plantation": 0.3938057152974965,
          "native": 0.04227641082929428
        },
        "minimum_lidar_spatial_coverage": 1.0,
        "caveat": "LiDAR spatial coverage does not establish tile capture dates; source datasets may have different capture periods.",
        "rank": 1,
        "selection": "inventory_verified_sar_optical",
        "config_sha256": "9e5e8200188e8647bca8557f7e19ba690892f510846d9254d3224219a395f42a",
        "lidar_required": false,
        "justification": "Highest ranked contiguous forest-mix candidate passing same-orbit SAR and pilot-specific optical composite overlap. LiDAR is optional; manual interpretation and registration remain required before validated reporting."
      },
      "geometry": {
        "type": "Polygon",
        "coordinates": [
          [
            [
              176.76199279492943,
              -39.20038230190216
            ],
            [
              176.75875075265566,
              -39.13959185930598
            ],
            [
              176.75900618030946,
              -39.139583482116116
            ],
            [
              176.7590207817197,
              -39.13985349412233
            ],
            [
              176.75936750438305,
              -39.13984212179212
            ],
            [
              176.75938210725872,
              -39.14011213277428
            ],
            [
              176.75939671037713,
              -39.1403821446385
            ],
            [
              176.7594113136425,
              -39.14065215558644
            ],
            [
              176.75942591715057,
              -39.1409221674164
            ],
            [
              176.75944052080558,
              -39.141192178330066
            ],
            [
              176.75909379270405,
              -39.14120355116176
            ],
            [
              176.75910839528325,
              -39.14147356306524
            ],
            [
              176.75945512470338,
              -39.141462190125765
            ],
            [
              176.7594697287481,
              -39.14173220100521
            ],
            [
              176.75948433303557,
              -39.14200221276665
            ],
            [
              176.75949893747,
              -39.14227222361184
            ],
            [
              176.75951354099251,
              -39.14254223537635
            ],
            [
              176.759860276695,
              -39.14253086183897
            ],
            [
              176.7602070121547,
              -39.14251948637367
            ],
            [
              176.7602216185095,
              -39.14278949790552
            ],
            [
              176.75987488283783,
              -39.14280087254212
            ],
            [
              176.7598894880688,
              -39.143070884164594
            ],
            [
              176.75954275088355,
              -39.14308225788022
            ],
            [
              176.75955735494276,
              -39.143352268694166
            ],
            [
              176.75957196039937,
              -39.14362228035291
            ],
            [
              176.7595865648483,
              -39.14389229113261
            ],
            [
              176.7599333071445,
              -39.14388091705636
            ],
            [
              176.75994791310706,
              -39.1441509277112
            ],
            [
              176.7599625193124,
              -39.14442093924802
            ],
            [
              176.75997712681948,
              -39.1446909498313
            ],
            [
              176.7599917334146,
              -39.144960961333894
            ],
            [
              176.7603384796365,
              -39.14494958583505
            ],
            [
              176.76068522681814,
              -39.144938209270016
            ],
            [
              176.76103197265013,
              -39.144926831713505
            ],
            [
              176.76104658455145,
              -39.14519684283828
            ],
            [
              176.76139333150735,
              -39.14518546414513
            ],
            [
              176.7614079437678,
              -39.145455475182246
            ],
            [
              176.76175469300233,
              -39.1454440953151
            ],
            [
              176.76210144208972,
              -39.1454327153183
            ],
            [
              176.76244819093426,
              -39.14542133339345
            ],
            [
              176.7627949395837,
              -39.145409950439785
            ],
            [
              176.76314168693133,
              -39.14539856739375
            ],
            [
              176.76348843519068,
              -39.14538718238241
            ],
            [
              176.7638351844576,
              -39.14537579720404
            ],
            [
              176.76418193232678,
              -39.14536441013499
            ],
            [
              176.7641965553332,
              -39.1456344202921
            ],
            [
              176.76454330437406,
              -39.14562303298551
            ],
            [
              176.76455792889448,
              -39.14589304301758
            ],
            [
              176.76490467901115,
              -39.145881653675055
            ],
            [
              176.7652514289806,
              -39.145870264202834
            ],
            [
              176.76523680182243,
              -39.145600254386586
            ],
            [
              176.76558355138457,
              -39.14558886305694
            ],
            [
              176.76593029964477,
              -39.14557747163496
            ],
            [
              176.76627704766184,
              -39.14556607828501
            ],
            [
              176.76662379668633,
              -39.14555468476799
            ],
            [
              176.7669705443129,
              -39.14554328936037
            ],
            [
              176.7669851781134,
              -39.145813299535945
            ],
            [
              176.76733192801828,
              -39.14580190295413
            ],
            [
              176.76734656333295,
              -39.146071913004604
            ],
            [
              176.76736119764018,
              -39.14634192217616
            ],
            [
              176.76770795003554,
              -39.14633052524865
            ],
            [
              176.7677225870597,
              -39.14660053515685
            ],
            [
              176.76806933942396,
              -39.14658913712987
            ],
            [
              176.7680839779143,
              -39.14685914601374
            ],
            [
              176.7684307325569,
              -39.14684774681248
            ],
            [
              176.76877748584945,
              -39.14683634661972
            ],
            [
              176.76912424010132,
              -39.14682494536071
            ],
            [
              176.76910959876088,
              -39.146554935864366
            ],
            [
              176.76945635149846,
              -39.146543533684515
            ],
            [
              176.76980310404065,
              -39.14653213047581
            ],
            [
              176.76981774801894,
              -39.14680213975606
            ],
            [
              176.77016450168463,
              -39.146790735410406
            ],
            [
              176.7705112551549,
              -39.146779330035905
            ],
            [
              176.7708580084297,
              -39.146767923632524
            ],
            [
              176.77087265771493,
              -39.14703793253398
            ],
            [
              176.7712194121132,
              -39.147026524993635
            ],
            [
              176.771566166316,
              -39.14701511642443
            ],
            [
              176.77191292032333,
              -39.147003706826325
            ],
            [
              176.77192757376076,
              -39.14727371538629
            ],
            [
              176.77227432889148,
              -39.14726230465122
            ],
            [
              176.77228898268868,
              -39.147532313123335
            ],
            [
              176.77230363788425,
              -39.14780232244005
            ],
            [
              176.77265039545736,
              -39.1477909104598
            ],
            [
              176.77266505096466,
              -39.148060918789476
            ],
            [
              176.77301181086395,
              -39.14804950653393
            ],
            [
              176.7730264678858,
              -39.14831951473829
            ],
            [
              176.77304112510322,
              -39.148589522925505
            ],
            [
              176.7733878862902,
              -39.14857810946215
            ],
            [
              176.77340254502226,
              -39.14884811752408
            ],
            [
              176.773417203998,
              -39.14911812646795
            ],
            [
              176.77376396873416,
              -39.14910671082271
            ],
            [
              176.77377862922458,
              -39.14937671964129
            ],
            [
              176.77343186312126,
              -39.14938813449553
            ],
            [
              176.7730850979771,
              -39.14939954828338
            ],
            [
              176.77273833153066,
              -39.14941096197886
            ],
            [
              176.77275298821135,
              -39.149680970205594
            ],
            [
              176.7727676451357,
              -39.14995097931435
            ],
            [
              176.77278230220756,
              -39.15022098750678
            ],
            [
              176.77312907150463,
              -39.15020957442342
            ],
            [
              176.7731437300912,
              -39.15047958249053
            ],
            [
              176.77315838771858,
              -39.15074959057791
            ],
            [
              176.77317304674446,
              -39.15101959950985
            ],
            [
              176.77351981975528,
              -39.1510081841739
            ],
            [
              176.77353448029598,
              -39.15127819298053
            ],
            [
              176.77388125447848,
              -39.15126677740652
            ],
            [
              176.7742280296201,
              -39.15125536076603
            ],
            [
              176.7745748034113,
              -39.151243943133956
            ],
            [
              176.7749215781616,
              -39.15123252443545
            ],
            [
              176.77526835156144,
              -39.15122110474535
            ],
            [
              176.7752830188456,
              -39.151491112094696
            ],
            [
              176.77562979457184,
              -39.15147969212901
            ],
            [
              176.7756444622162,
              -39.15174969939045
            ],
            [
              176.7756591301044,
              -39.15201970753383
            ],
            [
              176.77600590822516,
              -39.152008285423534
            ],
            [
              176.77602057762834,
              -39.152278293441526
            ],
            [
              176.77603524722727,
              -39.15254830144235
            ],
            [
              176.77638202779082,
              -39.152536878086515
            ],
            [
              176.7763966989048,
              -39.15280688596191
            ],
            [
              176.77641137016644,
              -39.15307689292101
            ],
            [
              176.77642604167198,
              -39.15334690076208
            ],
            [
              176.77677282604574,
              -39.153335476951575
            ],
            [
              176.77678749901827,
              -39.15360548376806
            ],
            [
              176.7771342845156,
              -39.1535940588202
            ],
            [
              176.77714895789657,
              -39.15386406644787
            ],
            [
              176.77716363262823,
              -39.154134074020924
            ],
            [
              176.7768168444922,
              -39.15414549918534
            ],
            [
              176.77683151810032,
              -39.15441550684947
            ],
            [
              176.7764847284491,
              -39.15442693109304
            ],
            [
              176.7761379386021,
              -39.154438354307466
            ],
            [
              176.77615260976725,
              -39.15470836217095
            ],
            [
              176.77616728112815,
              -39.15497837001728
            ],
            [
              176.7761819514818,
              -39.15524837698476
            ],
            [
              176.7758351586356,
              -39.15525979945732
            ],
            [
              176.7754883644388,
              -39.155271220938154
            ],
            [
              176.77514157009432,
              -39.155282642288974
            ],
            [
              176.77479477666085,
              -39.155294061674056
            ],
            [
              176.77444798303168,
              -39.15530548002991
            ],
            [
              176.77446264698386,
              -39.15557548752133
            ],
            [
              176.77447731228656,
              -39.155845494958136
            ],
            [
              176.77449197667823,
              -39.15611550331439
            ],
            [
              176.77450664121747,
              -39.156385510754326
            ],
            [
              176.77452130710734,
              -39.15665551813964
            ],
            [
              176.7745359720861,
              -39.156925526444425
            ],
            [
              176.77488277363236,
              -39.15691410743929
            ],
            [
              176.7748974412332,
              -39.15718411468208
            ],
            [
              176.77491210787488,
              -39.15745412194516
            ],
            [
              176.77492677476042,
              -39.15772413009024
            ],
            [
              176.77494144179357,
              -39.15799413731898
            ],
            [
              176.77495610902247,
              -39.15826414453056
            ],
            [
              176.7749707764952,
              -39.158534152624156
            ],
            [
              176.77498544411557,
              -39.158804159801385
            ],
            [
              176.77500011077677,
              -39.15907416699896
            ],
            [
              176.77501477878866,
              -39.15934417414191
            ],
            [
              176.7750294470444,
              -39.159614182166806
            ],
            [
              176.77504411429288,
              -39.1598841893129
            ],
            [
              176.77505878289196,
              -39.16015419640433
            ],
            [
              176.77471196546156,
              -39.16016561580884
            ],
            [
              176.77472663178173,
              -39.1604356230288
            ],
            [
              176.7747412994526,
              -39.16070563019412
            ],
            [
              176.77475596621235,
              -39.1609756382789
            ],
            [
              176.7747706342747,
              -39.16124564540991
            ],
            [
              176.77478530137782,
              -39.16151565256121
            ],
            [
              176.77479996867672,
              -39.16178565969535
            ],
            [
              176.77445314313164,
              -39.16179707871975
            ],
            [
              176.7744678093064,
              -39.16206708594493
            ],
            [
              176.77448247567685,
              -39.162337093152956
            ],
            [
              176.7748293038618,
              -39.16232567391214
            ],
            [
              176.7748439717479,
              -39.1625956809948
            ],
            [
              176.77519080226008,
              -39.16258426147801
            ],
            [
              176.775205471662,
              -39.162854268435275
            ],
            [
              176.7755523020952,
              -39.16284284691913
            ],
            [
              176.7755669730128,
              -39.163112853751
            ],
            [
              176.7759138046183,
              -39.16310143199637
            ],
            [
              176.7759284770517,
              -39.16337143870282
            ],
            [
              176.77594314968087,
              -39.16364144539211
            ],
            [
              176.77559631548354,
              -39.1636528682624
            ],
            [
              176.77561098583354,
              -39.163922875080246
            ],
            [
              176.77595782250592,
              -39.16391145206423
            ],
            [
              176.7759724944199,
              -39.164181459655836
            ],
            [
              176.77598716763654,
              -39.164451466293606
            ],
            [
              176.77600184104907,
              -39.16472147291423
            ],
            [
              176.7760165135024,
              -39.16499147955518
            ],
            [
              176.7763633541523,
              -39.1649800560133
            ],
            [
              176.77671019576132,
              -39.16496863140443
            ],
            [
              176.77672487105067,
              -39.165238637811676
            ],
            [
              176.77707171378395,
              -39.16522721206501
            ],
            [
              176.7770863906374,
              -39.165497219245964
            ],
            [
              176.77743323449488,
              -39.16548579236147
            ],
            [
              176.77744791281623,
              -39.16575579851785
            ],
            [
              176.77746259133346,
              -39.16602580465702
            ],
            [
              176.77780943768343,
              -39.16601437742556
            ],
            [
              176.7781562826343,
              -39.16600294830288
            ],
            [
              176.77850312854423,
              -39.16599151811319
            ],
            [
              176.77851781121785,
              -39.166261523910265
            ],
            [
              176.77886465830014,
              -39.166250093481814
            ],
            [
              176.77887934248994,
              -39.166520099153395
            ],
            [
              176.77889402692384,
              -39.16679010570697
            ],
            [
              176.77890871150558,
              -39.167060111344234
            ],
            [
              176.7789233963315,
              -39.167330117863436
            ],
            [
              176.77857654396846,
              -39.16734154872518
            ],
            [
              176.77822969261265,
              -39.167352979419
            ],
            [
              176.7782443749459,
              -39.16762298523855
            ],
            [
              176.77789752091883,
              -39.16763441504856
            ],
            [
              176.7779122021278,
              -39.16790442095925
            ],
            [
              176.7779268835327,
              -39.1681744268528
            ],
            [
              176.77794156518175,
              -39.16844443362827
            ],
            [
              176.77795624582353,
              -39.16871443952494
            ],
            [
              176.77760938742622,
              -39.16872586780192
            ],
            [
              176.77762406809867,
              -39.168995873752216
            ],
            [
              176.77763874786018,
              -39.169265880622
            ],
            [
              176.7776534289245,
              -39.16953588653797
            ],
            [
              176.77766810902972,
              -39.16980589247425
            ],
            [
              176.77801497386352,
              -39.16979446372655
            ],
            [
              176.77802965548508,
              -39.17006446953738
            ],
            [
              176.7780443373508,
              -39.17033447623017
            ],
            [
              176.77839120462946,
              -39.170323046236156
            ],
            [
              176.77840588796337,
              -39.17059305190431
            ],
            [
              176.7784205714933,
              -39.17086305755529
            ],
            [
              176.7784352552674,
              -39.17113306408824
            ],
            [
              176.77844994034442,
              -39.17140306966735
            ],
            [
              176.77846462446232,
              -39.171673075266824
            ],
            [
              176.7784793087762,
              -39.17194308084912
            ],
            [
              176.77882618267483,
              -39.171931650112064
            ],
            [
              176.77884086850528,
              -39.17220165556885
            ],
            [
              176.77885555453176,
              -39.17247166100848
            ],
            [
              176.77887024080243,
              -39.17274166733005
            ],
            [
              176.77888492722096,
              -39.17301167273531
            ],
            [
              176.77889961268036,
              -39.17328167816092
            ],
            [
              176.779246494141,
              -39.17327024581486
            ],
            [
              176.77926118111705,
              -39.17354025111496
            ],
            [
              176.7796080637022,
              -39.17352881763074
            ],
            [
              176.77995494493624,
              -39.173517383154234
            ],
            [
              176.78030182712922,
              -39.17350594761041
            ],
            [
              176.78064870912613,
              -39.17349451103673
            ],
            [
              176.78066340158077,
              -39.17376451588618
            ],
            [
              176.78101028470218,
              -39.17375307817432
            ],
            [
              176.78102497872183,
              -39.17402308379731
            ],
            [
              176.78137186296775,
              -39.17401164494721
            ],
            [
              176.78138655961115,
              -39.174281649507975
            ],
            [
              176.78173344382637,
              -39.17427020955718
            ],
            [
              176.78208032900062,
              -39.17425876853898
            ],
            [
              176.78209502852977,
              -39.17452877376482
            ],
            [
              176.78244191367332,
              -39.174517331645916
            ],
            [
              176.78278879977577,
              -39.17450588845959
            ],
            [
              176.78280350214249,
              -39.17477589345138
            ],
            [
              176.7831503893694,
              -39.17476444912679
            ],
            [
              176.78349727644832,
              -39.174753004671445
            ],
            [
              176.78351198049756,
              -39.17502300946669
            ],
            [
              176.78385886865263,
              -39.1750115629739
            ],
            [
              176.78420575661139,
              -39.17500011545124
            ],
            [
              176.78422046349831,
              -39.175270120012335
            ],
            [
              176.78456735378495,
              -39.17525867221288
            ],
            [
              176.78491424267176,
              -39.17524722252201
            ],
            [
              176.78492895239646,
              -39.17551722684891
            ],
            [
              176.78527584245595,
              -39.175505776918776
            ],
            [
              176.78529055369776,
              -39.17577578111999
            ],
            [
              176.78530526513592,
              -39.17604578530399
            ],
            [
              176.7853199767705,
              -39.17631578947081
            ],
            [
              176.78533468860144,
              -39.176585793620426
            ],
            [
              176.7856815837476,
              -39.17657434222632
            ],
            [
              176.78602847985255,
              -39.176562889764725
            ],
            [
              176.7860431933663,
              -39.17683289371769
            ],
            [
              176.78639009059566,
              -39.1768214401176
            ],
            [
              176.78640480678183,
              -39.177091443907244
            ],
            [
              176.78675170398037,
              -39.177079989206256
            ],
            [
              176.78676642168384,
              -39.17734999287015
            ],
            [
              176.78711332000674,
              -39.1773385370307
            ],
            [
              176.7874602192884,
              -39.177327080123675
            ],
            [
              176.78744549889493,
              -39.17705707577782
            ],
            [
              176.78779239665923,
              -39.177045617949496
            ],
            [
              176.78813929422702,
              -39.17703415909123
            ],
            [
              176.78848619044308,
              -39.17702269924061
            ],
            [
              176.78883308761777,
              -39.17701123832249
            ],
            [
              176.78917998459596,
              -39.17699977637446
            ],
            [
              176.7895268813775,
              -39.17698831339651
            ],
            [
              176.78951215325569,
              -39.17671830968513
            ],
            [
              176.78985904851984,
              -39.176706845785894
            ],
            [
              176.789844320429,
              -39.17643684212835
            ],
            [
              176.7901912141758,
              -39.17642537730787
            ],
            [
              176.79053810772592,
              -39.1764139114575
            ],
            [
              176.790523376035,
              -39.1761439080377
            ],
            [
              176.79087026801935,
              -39.17613244036699
            ],
            [
              176.79121716101062,
              -39.17612097252786
            ],
            [
              176.79156405265002,
              -39.17610950369649
            ],
            [
              176.79191094409265,
              -39.17609803383526
            ],
            [
              176.79189620842226,
              -39.17582802989625
            ],
            [
              176.79224309834748,
              -39.17581655911385
            ],
            [
              176.79258998807597,
              -39.17580508730159
            ],
            [
              176.7929368787629,
              -39.17579361442179
            ],
            [
              176.79328376925307,
              -39.17578214051212
            ],
            [
              176.7936306583429,
              -39.175770664711145
            ],
            [
              176.79361591515885,
              -39.175500662235365
            ],
            [
              176.79396280393473,
              -39.175489186374755
            ],
            [
              176.79430969246536,
              -39.17547770858514
            ],
            [
              176.79429494683677,
              -39.175207706309706
            ],
            [
              176.7946418338499,
              -39.17519622759903
            ],
            [
              176.79465658084757,
              -39.17546623066482
            ],
            [
              176.7946713280421,
              -39.175736233713366
            ],
            [
              176.79468607427833,
              -39.17600623678242
            ],
            [
              176.79470082181822,
              -39.176276238897444
            ],
            [
              176.7947155684481,
              -39.17654624193205
            ],
            [
              176.79473031643008,
              -39.17681624491179
            ],
            [
              176.7947450634053,
              -39.17708624701283
            ],
            [
              176.7950919595151,
              -39.1770747674099
            ],
            [
              176.7951067080564,
              -39.17734477028409
            ],
            [
              176.79512145794982,
              -39.17761477310336
            ],
            [
              176.79513620683647,
              -39.17788477504397
            ],
            [
              176.79548310676026,
              -39.17787329498381
            ],
            [
              176.79549785716466,
              -39.17814329679842
            ],
            [
              176.7955126078144,
              -39.178413299494956
            ],
            [
              176.79552735866105,
              -39.17868330217424
            ],
            [
              176.7955421097046,
              -39.178953304836334
            ],
            [
              176.79555686089665,
              -39.17922330658206
            ],
            [
              176.79590376722794,
              -39.17921182494791
            ],
            [
              176.79591851998626,
              -39.17948182746673
            ],
            [
              176.79593327289317,
              -39.17975182906923
            ],
            [
              176.79594802604535,
              -39.18002183155364
            ],
            [
              176.7959627782393,
              -39.1802918340585
            ],
            [
              176.79630968965748,
              -39.18028035095902
            ],
            [
              176.79632444447617,
              -39.18055035240105
            ],
            [
              176.7966713570184,
              -39.18053886816268
            ],
            [
              176.79701826936366,
              -39.1805273828943
            ],
            [
              176.7973651815119,
              -39.180515896595914
            ],
            [
              176.79737993938377,
              -39.18078589863097
            ],
            [
              176.797726852656,
              -39.18077441119367
            ],
            [
              176.79774161320123,
              -39.18104441306492
            ],
            [
              176.79808852759746,
              -39.181032924488704
            ],
            [
              176.79810328966073,
              -39.18130292623387
            ],
            [
              176.79845020518093,
              -39.18129143651871
            ],
            [
              176.7984649676071,
              -39.181561438175464
            ],
            [
              176.7984797302303,
              -39.181831439814985
            ],
            [
              176.7984944942059,
              -39.18210144139957
            ],
            [
              176.79850925722332,
              -39.18237144300465
            ],
            [
              176.7985240204378,
              -39.18264144459252
            ],
            [
              176.7985387838494,
              -39.18291144616315
            ],
            [
              176.7988857071476,
              -39.18289995566362
            ],
            [
              176.79890047207743,
              -39.18316995710814
            ],
            [
              176.7989152372044,
              -39.18343995853543
            ],
            [
              176.7992621641031,
              -39.18342846675026
            ],
            [
              176.7992769307484,
              -39.18369846805139
            ],
            [
              176.79929169643552,
              -39.18396846937303
            ],
            [
              176.799638625731,
              -39.18395697544072
            ],
            [
              176.79965339298502,
              -39.18422697753534
            ],
            [
              176.80000032340453,
              -39.184215482463976
            ],
            [
              176.80001509217692,
              -39.18448548443243
            ],
            [
              176.80036202372057,
              -39.18447398822193
            ],
            [
              176.80037679396287,
              -39.18474398916508
            ],
            [
              176.8000298622533,
              -39.18475548544679
            ],
            [
              176.80004463252686,
              -39.185025486443934
            ],
            [
              176.80005940184228,
              -39.18529548746159
            ],
            [
              176.80007417251022,
              -39.185565488424274
            ],
            [
              176.80008894222,
              -39.18583548940747
            ],
            [
              176.80010371328234,
              -39.186105490335706
            ],
            [
              176.8001184833865,
              -39.18637549128445
            ],
            [
              176.80013325368787,
              -39.186645492215995
            ],
            [
              176.80014802423491,
              -39.18691549402939
            ],
            [
              176.80049496651523,
              -39.18690399687606
            ],
            [
              176.80050973968775,
              -39.187173997626445
            ],
            [
              176.80052451190215,
              -39.18744399839732
            ],
            [
              176.8008714566766,
              -39.187432500894914
            ],
            [
              176.80088623040967,
              -39.187702501539604
            ],
            [
              176.80053928431386,
              -39.18771399915097
            ],
            [
              176.80055405692266,
              -39.18798399988739
            ],
            [
              176.80056882972875,
              -39.18825400060661
            ],
            [
              176.8005836015767,
              -39.18852400134631
            ],
            [
              176.80023665136764,
              -39.188535499153424
            ],
            [
              176.8002514232467,
              -39.188805499947115
            ],
            [
              176.79990447142185,
              -39.18881699503463
            ],
            [
              176.79991924217657,
              -39.18908699592005
            ],
            [
              176.79993401197314,
              -39.18935699682601
            ],
            [
              176.79994878312226,
              -39.18962699767699
            ],
            [
              176.79996355446852,
              -39.18989699851074
            ],
            [
              176.79997832485668,
              -39.190166999365
            ],
            [
              176.79999309659743,
              -39.190437000164316
            ],
            [
              176.79964613659735,
              -39.19044849397602
            ],
            [
              176.79966090605828,
              -39.190718494904786
            ],
            [
              176.79967567571637,
              -39.1909884958163
            ],
            [
              176.79932871292428,
              -39.190999989714626
            ],
            [
              176.79934348261335,
              -39.19126999068013
            ],
            [
              176.79935825129562,
              -39.19153999076705
            ],
            [
              176.7993730202236,
              -39.191809991735845
            ],
            [
              176.79938778934877,
              -39.1920799926874
            ],
            [
              176.79904082217956,
              -39.19209148505417
            ],
            [
              176.79905559018016,
              -39.192361486097454
            ],
            [
              176.79907035837797,
              -39.192631487123506
            ],
            [
              176.79908512672444,
              -39.19290148723321
            ],
            [
              176.79873815428573,
              -39.19291297983317
            ],
            [
              176.79875292150757,
              -39.19318298003458
            ],
            [
              176.79876768897506,
              -39.19345298111787
            ],
            [
              176.79878245659123,
              -39.19372298128481
            ],
            [
              176.7987972232976,
              -39.193992982371384
            ],
            [
              176.79881199130813,
              -39.19426298250392
            ],
            [
              176.79882675956432,
              -39.19453298351831
            ],
            [
              176.79884152681373,
              -39.194802983654085
            ],
            [
              176.79849454603175,
              -39.19481447504913
            ],
            [
              176.79850931220486,
              -39.19508447617572
            ],
            [
              176.79852407968218,
              -39.195354476348236
            ],
            [
              176.7988710631081,
              -39.19534298473539
            ],
            [
              176.79888583215302,
              -39.19561298568089
            ],
            [
              176.79923281670372,
              -39.19560149292853
            ],
            [
              176.79924758721936,
              -39.19587149284876
            ],
            [
              176.79959457409882,
              -39.19585999981828
            ],
            [
              176.79960934497817,
              -39.1961299996501
            ],
            [
              176.79995633293393,
              -39.19611850458097
            ],
            [
              176.80030332069242,
              -39.19610700848126
            ],
            [
              176.8003180944616,
              -39.196377008977066
            ],
            [
              176.8006650821408,
              -39.19636551087643
            ],
            [
              176.80101207077826,
              -39.196354011707456
            ],
            [
              176.80135905926687,
              -39.19634251240702
            ],
            [
              176.80170604750967,
              -39.19633101117687
            ],
            [
              176.8020530355551,
              -39.19631950891613
            ],
            [
              176.80240002340318,
              -39.1963080056248
            ],
            [
              176.80274701105384,
              -39.19629650130289
            ],
            [
              176.8027322280306,
              -39.196026501570095
            ],
            [
              176.8030792142104,
              -39.196014997225724
            ],
            [
              176.80342620014426,
              -39.19600349095173
            ],
            [
              176.80377318588071,
              -39.19599198364713
            ],
            [
              176.80375839908888,
              -39.19572198422421
            ],
            [
              176.80410538330585,
              -39.19571047599813
            ],
            [
              176.80412017141964,
              -39.195980475311956
            ],
            [
              176.80446715796518,
              -39.19596896680757
            ],
            [
              176.80448194759842,
              -39.19623896599507
            ],
            [
              176.80482893406437,
              -39.196227455489705
            ],
            [
              176.80484372521713,
              -39.19649745455091
            ],
            [
              176.8048585166159,
              -39.196767454493965
            ],
            [
              176.80487330816362,
              -39.19703745352069
            ],
            [
              176.80488809990888,
              -39.19730745253018
            ],
            [
              176.805235091514,
              -39.197295941456964
            ],
            [
              176.80524988477882,
              -39.19756594034009
            ],
            [
              176.80559687750852,
              -39.19755442812715
            ],
            [
              176.80561167229294,
              -39.19782442688395
            ],
            [
              176.8059586673027,
              -39.19781291349344
            ],
            [
              176.80597346245125,
              -39.19808291216168
            ],
            [
              176.80632045858556,
              -39.198071397631416
            ],
            [
              176.8063352552538,
              -39.1983413961733
            ],
            [
              176.8063500521682,
              -39.198611395597005
            ],
            [
              176.8063648492316,
              -39.19888139410441
            ],
            [
              176.80671184913473,
              -39.19886987821607
            ],
            [
              176.80705884884023,
              -39.1988583612971
            ],
            [
              176.807062018732,
              -39.1989161907118
            ],
            [
              176.76199279492943,
              -39.20038230190216
            ]
          ]
        ]
      }
    }
  ]
}